ORBCOMM FM33            
1 25983U 99065D   24322.90944085  .00001923  00000+0  66423-3 0  9996
2 25983  45.0284 282.6812 0007802  66.8334 293.3336 14.38897457305629
ORBCOMM FM36            
1 25984U 99065E   24322.59553086  .00002221  00000+0  78989-3 0  9991
2 25984  45.0406  12.8376 0005063 296.4968  63.5361 14.36974710303972
ORBCOMM FM34            
1 25986U 99065G   24323.10300224  .00001569  00000+0  58096-3 0  9996
2 25986  45.0402  14.4726 0003893 331.2097  28.8536 14.36212230304585
ORBCOMM FM38            
1 33060U 08031A   24322.90665444  .00003156  00000+0  44497-3 0  9990
2 33060  48.4399 240.8976 0005586 208.3640 151.6972 14.79542107883442
ORBCOMM FM41            
1 33061U 08031B   24322.86741953  .00003157  00000+0  44878-3 0  9990
2 33061  48.4436 248.1836 0004728 194.2868 232.5558 14.79192662882932
ORBCOMM FM29            
1 33062U 08031C   24322.93037014  .00003166  00000+0  44983-3 0  9992
2 33062  48.4391 255.8871 0006390 193.8508 245.0962 14.79209971882851
