<?xml version="1.0" encoding="UTF-8"?>
<ndm xmlns:xsi="http://www.w3.org/2001/XMLSchema-instance" xsi:noNamespaceSchemaLocation="https://sanaregistry.org/r/ndmxml_unqualified/ndmxml-2.0.0-master-2.0.xsd">
<omm id="CCSDS_OMM_VERS" version="2.0">
<header><CREATION_DATE/><ORIGINATOR/></header><body><segment><metadata><OBJECT_NAME>ORBCOMM FM33</OBJECT_NAME><OBJECT_ID>1999-065D</OBJECT_ID><CENTER_NAME>EARTH</CENTER_NAME><REF_FRAME>TEME</REF_FRAME><TIME_SYSTEM>UTC</TIME_SYSTEM><MEAN_ELEMENT_THEORY>SGP4</MEAN_ELEMENT_THEORY></metadata><data><meanElements><EPOCH>2024-11-17T21:49:35.689440</EPOCH><MEAN_MOTION>14.38897457</MEAN_MOTION><ECCENTRICITY>.0007802</ECCENTRICITY><INCLINATION>45.0284</INCLINATION><RA_OF_ASC_NODE>282.6812</RA_OF_ASC_NODE><ARG_OF_PERICENTER>66.8334</ARG_OF_PERICENTER><MEAN_ANOMALY>293.3336</MEAN_ANOMALY></meanElements><tleParameters><EPHEMERIS_TYPE>0</EPHEMERIS_TYPE><CLASSIFICATION_TYPE>U</CLASSIFICATION_TYPE><NORAD_CAT_ID>25983</NORAD_CAT_ID><ELEMENT_SET_NO>999</ELEMENT_SET_NO><REV_AT_EPOCH>30562</REV_AT_EPOCH><BSTAR>.66423E-3</BSTAR><MEAN_MOTION_DOT>.1923E-4</MEAN_MOTION_DOT><MEAN_MOTION_DDOT>0</MEAN_MOTION_DDOT></tleParameters></data></segment></body></omm>
<omm id="CCSDS_OMM_VERS" version="2.0">
<header><CREATION_DATE/><ORIGINATOR/></header><body><segment><metadata><OBJECT_NAME>ORBCOMM FM36</OBJECT_NAME><OBJECT_ID>1999-065E</OBJECT_ID><CENTER_NAME>EARTH</CENTER_NAME><REF_FRAME>TEME</REF_FRAME><TIME_SYSTEM>UTC</TIME_SYSTEM><MEAN_ELEMENT_THEORY>SGP4</MEAN_ELEMENT_THEORY></metadata><data><meanElements><EPOCH>2024-11-17T14:17:33.866304</EPOCH><MEAN_MOTION>14.36974710</MEAN_MOTION><ECCENTRICITY>.0005063</ECCENTRICITY><INCLINATION>45.0406</INCLINATION><RA_OF_ASC_NODE>12.8376</RA_OF_ASC_NODE><ARG_OF_PERICENTER>296.4968</ARG_OF_PERICENTER><MEAN_ANOMALY>63.5361</MEAN_ANOMALY></meanElements><tleParameters><EPHEMERIS_TYPE>0</EPHEMERIS_TYPE><CLASSIFICATION_TYPE>U</CLASSIFICATION_TYPE><NORAD_CAT_ID>25984</NORAD_CAT_ID><ELEMENT_SET_NO>999</ELEMENT_SET_NO><REV_AT_EPOCH>30397</REV_AT_EPOCH><BSTAR>.78989E-3</BSTAR><MEAN_MOTION_DOT>.2221E-4</MEAN_MOTION_DOT><MEAN_MOTION_DDOT>0</MEAN_MOTION_DDOT></tleParameters></data></segment></body></omm>
<omm id="CCSDS_OMM_VERS" version="2.0">
<header><CREATION_DATE/><ORIGINATOR/></header><body><segment><metadata><OBJECT_NAME>ORBCOMM FM34</OBJECT_NAME><OBJECT_ID>1999-065G</OBJECT_ID><CENTER_NAME>EARTH</CENTER_NAME><REF_FRAME>TEME</REF_FRAME><TIME_SYSTEM>UTC</TIME_SYSTEM><MEAN_ELEMENT_THEORY>SGP4</MEAN_ELEMENT_THEORY></metadata><data><meanElements><EPOCH>2024-11-18T02:28:19.393536</EPOCH><MEAN_MOTION>14.36212230</MEAN_MOTION><ECCENTRICITY>.0003893</ECCENTRICITY><INCLINATION>45.0402</INCLINATION><RA_OF_ASC_NODE>14.4726</RA_OF_ASC_NODE><ARG_OF_PERICENTER>331.2097</ARG_OF_PERICENTER><MEAN_ANOMALY>28.8536</MEAN_ANOMALY></meanElements><tleParameters><EPHEMERIS_TYPE>0</EPHEMERIS_TYPE><CLASSIFICATION_TYPE>U</CLASSIFICATION_TYPE><NORAD_CAT_ID>25986</NORAD_CAT_ID><ELEMENT_SET_NO>999</ELEMENT_SET_NO><REV_AT_EPOCH>30458</REV_AT_EPOCH><BSTAR>.58096E-3</BSTAR><MEAN_MOTION_DOT>.1569E-4</MEAN_MOTION_DOT><MEAN_MOTION_DDOT>0</MEAN_MOTION_DDOT></tleParameters></data></segment></body></omm>
<omm id="CCSDS_OMM_VERS" version="2.0">
<header><CREATION_DATE/><ORIGINATOR/></header><body><segment><metadata><OBJECT_NAME>ORBCOMM FM38</OBJECT_NAME><OBJECT_ID>2008-031A</OBJECT_ID><CENTER_NAME>EARTH</CENTER_NAME><REF_FRAME>TEME</REF_FRAME><TIME_SYSTEM>UTC</TIME_SYSTEM><MEAN_ELEMENT_THEORY>SGP4</MEAN_ELEMENT_THEORY></metadata><data><meanElements><EPOCH>2024-11-17T21:45:34.943616</EPOCH><MEAN_MOTION>14.79542107</MEAN_MOTION><ECCENTRICITY>.0005586</ECCENTRICITY><INCLINATION>48.4399</INCLINATION><RA_OF_ASC_NODE>240.8976</RA_OF_ASC_NODE><ARG_OF_PERICENTER>208.3640</ARG_OF_PERICENTER><MEAN_ANOMALY>151.6972</MEAN_ANOMALY></meanElements><tleParameters><EPHEMERIS_TYPE>0</EPHEMERIS_TYPE><CLASSIFICATION_TYPE>U</CLASSIFICATION_TYPE><NORAD_CAT_ID>33060</NORAD_CAT_ID><ELEMENT_SET_NO>999</ELEMENT_SET_NO><REV_AT_EPOCH>88344</REV_AT_EPOCH><BSTAR>.44497E-3</BSTAR><MEAN_MOTION_DOT>.3156E-4</MEAN_MOTION_DOT><MEAN_MOTION_DDOT>0</MEAN_MOTION_DDOT></tleParameters></data></segment></body></omm>
<omm id="CCSDS_OMM_VERS" version="2.0">
<header><CREATION_DATE/><ORIGINATOR/></header><body><segment><metadata><OBJECT_NAME>ORBCOMM FM41</OBJECT_NAME><OBJECT_ID>2008-031B</OBJECT_ID><CENTER_NAME>EARTH</CENTER_NAME><REF_FRAME>TEME</REF_FRAME><TIME_SYSTEM>UTC</TIME_SYSTEM><MEAN_ELEMENT_THEORY>SGP4</MEAN_ELEMENT_THEORY></metadata><data><meanElements><EPOCH>2024-11-17T20:49:05.047392</EPOCH><MEAN_MOTION>14.79192662</MEAN_MOTION><ECCENTRICITY>.0004728</ECCENTRICITY><INCLINATION>48.4436</INCLINATION><RA_OF_ASC_NODE>248.1836</RA_OF_ASC_NODE><ARG_OF_PERICENTER>194.2868</ARG_OF_PERICENTER><MEAN_ANOMALY>232.5558</MEAN_ANOMALY></meanElements><tleParameters><EPHEMERIS_TYPE>0</EPHEMERIS_TYPE><CLASSIFICATION_TYPE>U</CLASSIFICATION_TYPE><NORAD_CAT_ID>33061</NORAD_CAT_ID><ELEMENT_SET_NO>999</ELEMENT_SET_NO><REV_AT_EPOCH>88293</REV_AT_EPOCH><BSTAR>.44878E-3</BSTAR><MEAN_MOTION_DOT>.3157E-4</MEAN_MOTION_DOT><MEAN_MOTION_DDOT>0</MEAN_MOTION_DDOT></tleParameters></data></segment></body></omm>
<omm id="CCSDS_OMM_VERS" version="2.0">
<header><CREATION_DATE/><ORIGINATOR/></header><body><segment><metadata><OBJECT_NAME>ORBCOMM FM29</OBJECT_NAME><OBJECT_ID>2008-031C</OBJECT_ID><CENTER_NAME>EARTH</CENTER_NAME><REF_FRAME>TEME</REF_FRAME><TIME_SYSTEM>UTC</TIME_SYSTEM><MEAN_ELEMENT_THEORY>SGP4</MEAN_ELEMENT_THEORY></metadata><data><meanElements><EPOCH>2024-11-17T22:19:43.980096</EPOCH><MEAN_MOTION>14.79209971</MEAN_MOTION><ECCENTRICITY>.000639</ECCENTRICITY><INCLINATION>48.4391</INCLINATION><RA_OF_ASC_NODE>255.8871</RA_OF_ASC_NODE><ARG_OF_PERICENTER>193.8508</ARG_OF_PERICENTER><MEAN_ANOMALY>245.0962</MEAN_ANOMALY></meanElements><tleParameters><EPHEMERIS_TYPE>0</EPHEMERIS_TYPE><CLASSIFICATION_TYPE>U</CLASSIFICATION_TYPE><NORAD_CAT_ID>33062</NORAD_CAT_ID><ELEMENT_SET_NO>999</ELEMENT_SET_NO><REV_AT_EPOCH>88285</REV_AT_EPOCH><BSTAR>.44983E-3</BSTAR><MEAN_MOTION_DOT>.3166E-4</MEAN_MOTION_DOT><MEAN_MOTION_DDOT>0</MEAN_MOTION_DDOT></tleParameters></data></segment></body></omm>

</ndm>
